TIANQI-39               
1 67478U 26010C   26038.28877639  .00000282  00000+0  22087-3 0  9993
2 67478  44.9841 301.1679 0016483  77.2563 283.0117 14.13054745  3181
TIANQI-40               
1 67479U 26010D   26038.21354057  .00000343  00000+0  24994-3 0  9998
2 67479  44.9835 301.4615 0012351  77.8910 282.3312 14.13803482  3178
SZ-20 MODULE            
1 67481U 25082C   26038.02916687  .00028520  00000+0  31436-3 0  9997
2 67481  41.4798  34.2415 0006451 120.3993 239.7485 15.62445444272821
2025-313BE              
1 67482U 25313BE  26036.72310125  .00103503  00000+0  40965-2 0  9996
2 67482  97.4069 113.6274 0008903 100.3384 259.8858 15.24973835  3091
ION SCV-021             
1 67483U 25276DT  26034.18636465  .00001099  00000+0  99302-4 0  9999
2 67483  97.5400 109.5002 0011491 211.3853 148.6685 14.97380347  2557
STARLINK-36551          
1 67493U 26012A   26038.25003472 -.01913984  00000+0 -19562-1 0  9992
2 67493  42.9993 128.3207 0001470 273.6489  78.5578 15.67218091  4173
STARLINK-36396          
1 67494U 26012B   26038.25003472 -.02484658  00000+0 -43951-1 0  9994
2 67494  42.9991 128.8458 0000993 285.5605 214.6560 15.52856799  4177
STARLINK-36550          
1 67495U 26012C   26038.25003472 -.02316921  00000+0 -29072-1 0  9990
2 67495  42.9986 128.4542 0001405 266.1317  32.3086 15.62219082  4173
STARLINK-36534          
1 67496U 26012D   26038.25003472 -.01912864  00000+0 -20267-1 0  9995
2 67496  42.9994 128.3107 0001465 271.6526  84.3362 15.66338653  4116
STARLINK-36555          
1 67497U 26012E   26038.25003472 -.01912630  00000+0 -20336-1 0  9994
2 67497  42.9993 128.3251 0001540 273.7025  76.5310 15.66250406  4178
STARLINK-36081          
1 67498U 26012F   26038.25003472 -.02325609  00000+0 -29787-1 0  9999
2 67498  42.9991 128.4390 0001388 265.8201  38.4638 15.61710093  4112
STARLINK-36558          
1 67499U 26012G   26038.25003472 -.02331255  00000+0 -29882-1 0  9990
2 67499  42.9992 128.4321 0001357 264.4617  42.4690 15.61700157  4179
