CCSDS_OMM_VERS = 2.0
CREATION_DATE  = 
ORIGINATOR     = 

OBJECT_NAME    = TIANQI-39
OBJECT_ID      = 2026-010C
CENTER_NAME    = EARTH
REF_FRAME      = TEME
TIME_SYSTEM    = UTC
MEAN_ELEMENT_THEORY = SGP/SGP4

EPOCH          = 2026-02-07T06:55:50.280096
MEAN_MOTION    = 14.13054745
ECCENTRICITY   = .00164831
INCLINATION    = 44.9841
RA_OF_ASC_NODE = 301.1679
ARG_OF_PERICENTER = 77.2563
MEAN_ANOMALY   = 283.0117

EPHEMERIS_TYPE = 0
CLASSIFICATION_TYPE = U
NORAD_CAT_ID   = 67478
ELEMENT_SET_NO = 999
REV_AT_EPOCH   = 318
BSTAR          = .22087088E-3
MEAN_MOTION_DOT = .282E-5
MEAN_MOTION_DDOT = 0

CCSDS_OMM_VERS = 2.0
CREATION_DATE  = 
ORIGINATOR     = 

OBJECT_NAME    = TIANQI-40
OBJECT_ID      = 2026-010D
CENTER_NAME    = EARTH
REF_FRAME      = TEME
TIME_SYSTEM    = UTC
MEAN_ELEMENT_THEORY = SGP/SGP4

EPOCH          = 2026-02-07T05:07:29.905248
MEAN_MOTION    = 14.13803482
ECCENTRICITY   = .00123516
INCLINATION    = 44.9835
RA_OF_ASC_NODE = 301.4615
ARG_OF_PERICENTER = 77.8910
MEAN_ANOMALY   = 282.3312

EPHEMERIS_TYPE = 0
CLASSIFICATION_TYPE = U
NORAD_CAT_ID   = 67479
ELEMENT_SET_NO = 999
REV_AT_EPOCH   = 317
BSTAR          = .24994052E-3
MEAN_MOTION_DOT = .343E-5
MEAN_MOTION_DDOT = 0

CCSDS_OMM_VERS = 2.0
CREATION_DATE  = 
ORIGINATOR     = 

OBJECT_NAME    = SZ-20 MODULE
OBJECT_ID      = 2025-082C
CENTER_NAME    = EARTH
REF_FRAME      = TEME
TIME_SYSTEM    = UTC
MEAN_ELEMENT_THEORY = SGP/SGP4

EPOCH          = 2026-02-07T00:42:00.017568
MEAN_MOTION    = 15.62445444
ECCENTRICITY   = .00064519
INCLINATION    = 41.4798
RA_OF_ASC_NODE = 34.2415
ARG_OF_PERICENTER = 120.3993
MEAN_ANOMALY   = 239.7485

EPHEMERIS_TYPE = 0
CLASSIFICATION_TYPE = U
NORAD_CAT_ID   = 67481
ELEMENT_SET_NO = 999
REV_AT_EPOCH   = 27282
BSTAR          = .3143579E-3
MEAN_MOTION_DOT = .2852E-3
MEAN_MOTION_DDOT = 0

CCSDS_OMM_VERS = 2.0
CREATION_DATE  = 
ORIGINATOR     = 

OBJECT_NAME    = 2025-313BE
OBJECT_ID      = 2025-313BE
CENTER_NAME    = EARTH
REF_FRAME      = TEME
TIME_SYSTEM    = UTC
MEAN_ELEMENT_THEORY = SGP/SGP4

EPOCH          = 2026-02-05T17:21:15.948000
MEAN_MOTION    = 15.24973835
ECCENTRICITY   = .00089038
INCLINATION    = 97.4069
RA_OF_ASC_NODE = 113.6274
ARG_OF_PERICENTER = 100.3384
MEAN_ANOMALY   = 259.8858

EPHEMERIS_TYPE = 0
CLASSIFICATION_TYPE = U
NORAD_CAT_ID   = 67482
ELEMENT_SET_NO = 999
REV_AT_EPOCH   = 309
BSTAR          = .40964846E-2
MEAN_MOTION_DOT = .103503E-2
MEAN_MOTION_DDOT = 0

CCSDS_OMM_VERS = 2.0
CREATION_DATE  = 
ORIGINATOR     = 

OBJECT_NAME    = ION SCV-021
OBJECT_ID      = 2025-276DT
CENTER_NAME    = EARTH
REF_FRAME      = TEME
TIME_SYSTEM    = UTC
MEAN_ELEMENT_THEORY = SGP/SGP4

EPOCH          = 2026-02-03T04:28:21.905760
MEAN_MOTION    = 14.97380347
ECCENTRICITY   = .0011491
INCLINATION    = 97.5400
RA_OF_ASC_NODE = 109.5002
ARG_OF_PERICENTER = 211.3853
MEAN_ANOMALY   = 148.6685

EPHEMERIS_TYPE = 0
CLASSIFICATION_TYPE = U
NORAD_CAT_ID   = 67483
ELEMENT_SET_NO = 999
REV_AT_EPOCH   = 255
BSTAR          = .99302135E-4
MEAN_MOTION_DOT = .1099E-4
MEAN_MOTION_DDOT = 0

CCSDS_OMM_VERS = 2.0
CREATION_DATE  = 
ORIGINATOR     = 

OBJECT_NAME    = STARLINK-36551
OBJECT_ID      = 2026-012A
CENTER_NAME    = EARTH
REF_FRAME      = TEME
TIME_SYSTEM    = UTC
MEAN_ELEMENT_THEORY = SGP/SGP4

EPOCH          = 2026-02-07T06:00:02.999808
MEAN_MOTION    = 15.67218091
ECCENTRICITY   = .00014702
INCLINATION    = 42.9993
RA_OF_ASC_NODE = 128.3207
ARG_OF_PERICENTER = 273.6489
MEAN_ANOMALY   = 78.5578

EPHEMERIS_TYPE = 0
CLASSIFICATION_TYPE = U
NORAD_CAT_ID   = 67493
ELEMENT_SET_NO = 999
REV_AT_EPOCH   = 417
BSTAR          = -.19562266E-1
MEAN_MOTION_DOT = -.1913984E-1
MEAN_MOTION_DDOT = 0

CCSDS_OMM_VERS = 2.0
CREATION_DATE  = 
ORIGINATOR     = 

OBJECT_NAME    = STARLINK-36396
OBJECT_ID      = 2026-012B
CENTER_NAME    = EARTH
REF_FRAME      = TEME
TIME_SYSTEM    = UTC
MEAN_ELEMENT_THEORY = SGP/SGP4

EPOCH          = 2026-02-07T06:00:02.999808
MEAN_MOTION    = 15.52856799
ECCENTRICITY   = .0000993
INCLINATION    = 42.9991
RA_OF_ASC_NODE = 128.8458
ARG_OF_PERICENTER = 285.5605
MEAN_ANOMALY   = 214.6560

EPHEMERIS_TYPE = 0
CLASSIFICATION_TYPE = U
NORAD_CAT_ID   = 67494
ELEMENT_SET_NO = 999
REV_AT_EPOCH   = 417
BSTAR          = -.43950624E-1
MEAN_MOTION_DOT = -.2484658E-1
MEAN_MOTION_DDOT = 0

CCSDS_OMM_VERS = 2.0
CREATION_DATE  = 
ORIGINATOR     = 

OBJECT_NAME    = STARLINK-36550
OBJECT_ID      = 2026-012C
CENTER_NAME    = EARTH
REF_FRAME      = TEME
TIME_SYSTEM    = UTC
MEAN_ELEMENT_THEORY = SGP/SGP4

EPOCH          = 2026-02-07T06:00:02.999808
MEAN_MOTION    = 15.62219082
ECCENTRICITY   = .00014054
INCLINATION    = 42.9986
RA_OF_ASC_NODE = 128.4542
ARG_OF_PERICENTER = 266.1317
MEAN_ANOMALY   = 32.3086

EPHEMERIS_TYPE = 0
CLASSIFICATION_TYPE = U
NORAD_CAT_ID   = 67495
ELEMENT_SET_NO = 999
REV_AT_EPOCH   = 417
BSTAR          = -.2907224E-1
MEAN_MOTION_DOT = -.2316921E-1
MEAN_MOTION_DDOT = 0

CCSDS_OMM_VERS = 2.0
CREATION_DATE  = 
ORIGINATOR     = 

OBJECT_NAME    = STARLINK-36534
OBJECT_ID      = 2026-012D
CENTER_NAME    = EARTH
REF_FRAME      = TEME
TIME_SYSTEM    = UTC
MEAN_ELEMENT_THEORY = SGP/SGP4

EPOCH          = 2026-02-07T06:00:02.999808
MEAN_MOTION    = 15.66338653
ECCENTRICITY   = .0001465
INCLINATION    = 42.9994
RA_OF_ASC_NODE = 128.3107
ARG_OF_PERICENTER = 271.6526
MEAN_ANOMALY   = 84.3362

EPHEMERIS_TYPE = 0
CLASSIFICATION_TYPE = U
NORAD_CAT_ID   = 67496
ELEMENT_SET_NO = 999
REV_AT_EPOCH   = 411
BSTAR          = -.20266543E-1
MEAN_MOTION_DOT = -.1912864E-1
MEAN_MOTION_DDOT = 0

CCSDS_OMM_VERS = 2.0
CREATION_DATE  = 
ORIGINATOR     = 

OBJECT_NAME    = STARLINK-36555
OBJECT_ID      = 2026-012E
CENTER_NAME    = EARTH
REF_FRAME      = TEME
TIME_SYSTEM    = UTC
MEAN_ELEMENT_THEORY = SGP/SGP4

EPOCH          = 2026-02-07T06:00:02.999808
MEAN_MOTION    = 15.66250406
ECCENTRICITY   = .00015407
INCLINATION    = 42.9993
RA_OF_ASC_NODE = 128.3251
ARG_OF_PERICENTER = 273.7025
MEAN_ANOMALY   = 76.5310

EPHEMERIS_TYPE = 0
CLASSIFICATION_TYPE = U
NORAD_CAT_ID   = 67497
ELEMENT_SET_NO = 999
REV_AT_EPOCH   = 417
BSTAR          = -.20336171E-1
MEAN_MOTION_DOT = -.191263E-1
MEAN_MOTION_DDOT = 0

CCSDS_OMM_VERS = 2.0
CREATION_DATE  = 
ORIGINATOR     = 

OBJECT_NAME    = STARLINK-36081
OBJECT_ID      = 2026-012F
CENTER_NAME    = EARTH
REF_FRAME      = TEME
TIME_SYSTEM    = UTC
MEAN_ELEMENT_THEORY = SGP/SGP4

EPOCH          = 2026-02-07T06:00:02.999808
MEAN_MOTION    = 15.61710093
ECCENTRICITY   = .00013882
INCLINATION    = 42.9991
RA_OF_ASC_NODE = 128.4390
ARG_OF_PERICENTER = 265.8201
MEAN_ANOMALY   = 38.4638

EPHEMERIS_TYPE = 0
CLASSIFICATION_TYPE = U
NORAD_CAT_ID   = 67498
ELEMENT_SET_NO = 999
REV_AT_EPOCH   = 411
BSTAR          = -.29787279E-1
MEAN_MOTION_DOT = -.2325609E-1
MEAN_MOTION_DDOT = 0

CCSDS_OMM_VERS = 2.0
CREATION_DATE  = 
ORIGINATOR     = 

OBJECT_NAME    = STARLINK-36558
OBJECT_ID      = 2026-012G
CENTER_NAME    = EARTH
REF_FRAME      = TEME
TIME_SYSTEM    = UTC
MEAN_ELEMENT_THEORY = SGP/SGP4

EPOCH          = 2026-02-07T06:00:02.999808
MEAN_MOTION    = 15.61700157
ECCENTRICITY   = .00013579
INCLINATION    = 42.9992
RA_OF_ASC_NODE = 128.4321
ARG_OF_PERICENTER = 264.4617
MEAN_ANOMALY   = 42.4690

EPHEMERIS_TYPE = 0
CLASSIFICATION_TYPE = U
NORAD_CAT_ID   = 67499
ELEMENT_SET_NO = 999
REV_AT_EPOCH   = 417
BSTAR          = -.29881697E-1
MEAN_MOTION_DOT = -.2331255E-1
MEAN_MOTION_DDOT = 0

